start=new Date('2022-06-28T00:00:00.000Z').valueOf();
sats=[{"OBJECT_NAME":"STARLINK-2713","APOAPSIS":"548.482","BSTAR":"-0.00010917000000","MEAN_MOTION_DOT":"-0.00001907","PERIAPSIS":"545.942","MEAN_ELEMENT_THEORY":"SGP4","RCS_SIZE":"LARGE","EPOCH":"2022-06-27T21:40:28.573536","TIME_SYSTEM":"UTC","CENTER_NAME":"EARTH","REV_AT_EPOCH":"6307","TLE_LINE2":"2 48602  53.0567  60.5426 0001834  69.0198 291.0987 15.06400622 63078","SITE":"AFETR","EPHEMERIS_TYPE":"0","COUNTRY_CODE":"US","MEAN_MOTION":"15.06400622","MEAN_MOTION_DDOT":"0.0000000000000","ECCENTRICITY":"0.00018340","CLASSIFICATION_TYPE":"U","MEAN_ANOMALY":"291.0987","PERIOD":"95.592","INCLINATION":"53.0567","GP_ID":"206991239","REF_FRAME":"TEME","DECAY_DATE":null,"NORAD_CAT_ID":"48602","ELEMENT_SET_NO":"999","SEMIMAJOR_AXIS":"6925.347","TLE_LINE1":"1 48602U 21041BB  22178.90310849 -.00001907  00000-0 -10917-3 0  9992","RA_OF_ASC_NODE":"60.5426","LAUNCH_DATE":"2021-05-15","OBJECT_ID":"2021-041BB","FILE":"3504144","OBJECT_TYPE":"PAYLOAD","ARG_OF_PERICENTER":"69.0198"},{"EPOCH":"2022-06-27T21:10:35.018400","CENTER_NAME":"EARTH","TIME_SYSTEM":"UTC","REV_AT_EPOCH":"6315","TLE_LINE2":"2 48603  53.0559  55.6204 0001529  72.6825 287.4331 15.06400559 63157","OBJECT_NAME":"STARLINK-2714","APOAPSIS":"548.271","BSTAR":"-0.00003046200000","MEAN_MOTION_DOT":"-0.00000735","PERIAPSIS":"546.153","MEAN_ELEMENT_THEORY":"SGP4","RCS_SIZE":"LARGE","PERIOD":"95.592","MEAN_ANOMALY":"287.4331","GP_ID":"206991991","INCLINATION":"53.0559","SITE":"AFETR","EPHEMERIS_TYPE":"0","COUNTRY_CODE":"US","MEAN_MOTION":"15.06400559","MEAN_MOTION_DDOT":"0.0000000000000","CLASSIFICATION_TYPE":"U","ECCENTRICITY":"0.00015290","LAUNCH_DATE":"2021-05-15","OBJECT_ID":"2021-041BC","DECAY_DATE":null,"REF_FRAME":"TEME","NORAD_CAT_ID":"48603","SEMIMAJOR_AXIS":"6925.347","ELEMENT_SET_NO":"999","TLE_LINE1":"1 48603U 21041BC  22178.88234975 -.00000735  00000-0 -30462-4 0  9991","RA_OF_ASC_NODE":"55.6204","OBJECT_TYPE":"PAYLOAD","ARG_OF_PERICENTER":"72.6825","FILE":"3504144"},{"COUNTRY_CODE":"US","MEAN_MOTION":"15.06407194","SITE":"AFETR","EPHEMERIS_TYPE":"0","CLASSIFICATION_TYPE":"U","ECCENTRICITY":"0.00017730","MEAN_MOTION_DDOT":"0.0000000000000","PERIOD":"95.592","MEAN_ANOMALY":"287.7657","INCLINATION":"53.0554","GP_ID":"206992237","APOAPSIS":"548.419","BSTAR":"-0.00000138350000","OBJECT_NAME":"STARLINK-2757","MEAN_ELEMENT_THEORY":"SGP4","RCS_SIZE":"LARGE","MEAN_MOTION_DOT":"-0.00000302","PERIAPSIS":"545.964","CENTER_NAME":"EARTH","TIME_SYSTEM":"UTC","EPOCH":"2022-06-27T21:13:15.555648","REV_AT_EPOCH":"6273","TLE_LINE2":"2 48604  53.0554  85.6283 0001773  72.3526 287.7657 15.06407194 62738","FILE":"3504144","OBJECT_TYPE":"PAYLOAD","ARG_OF_PERICENTER":"72.3526","NORAD_CAT_ID":"48604","REF_FRAME":"TEME","DECAY_DATE":null,"RA_OF_ASC_NODE":"85.6283","TLE_LINE1":"1 48604U 21041BD  22178.88420782 -.00000302  00000-0 -13835-5 0  9991","SEMIMAJOR_AXIS":"6925.327","ELEMENT_SET_NO":"999","OBJECT_ID":"2021-041BD","LAUNCH_DATE":"2021-05-15"},{"SEMIMAJOR_AXIS":"6925.401","ELEMENT_SET_NO":"999","RA_OF_ASC_NODE":"60.5478","TLE_LINE1":"1 48638U 21044A   22178.90217577 -.00001221  00000-0 -63110-4 0  9991","REF_FRAME":"TEME","DECAY_DATE":null,"NORAD_CAT_ID":"48638","LAUNCH_DATE":"2021-05-26","OBJECT_ID":"2021-044A","FILE":"3504144","ARG_OF_PERICENTER":"70.3849","OBJECT_TYPE":"PAYLOAD","PERIAPSIS":"546.424","MEAN_MOTION_DOT":"-0.00001221","RCS_SIZE":"LARGE","MEAN_ELEMENT_THEORY":"SGP4","OBJECT_NAME":"STARLINK-2758","BSTAR":"-0.00006311000000","APOAPSIS":"548.109","TLE_LINE2":"2 48638  53.0557  60.5478 0001217  70.3849 289.7271 15.06382762 60189","REV_AT_EPOCH":"6018","EPOCH":"2022-06-27T21:39:07.986528","CENTER_NAME":"EARTH","TIME_SYSTEM":"UTC","MEAN_MOTION_DDOT":"0.0000000000000","ECCENTRICITY":"0.00012170","CLASSIFICATION_TYPE":"U","EPHEMERIS_TYPE":"0","SITE":"AFETR","MEAN_MOTION":"15.06382762","COUNTRY_CODE":"US","GP_ID":"206990745","INCLINATION":"53.0557","PERIOD":"95.593","MEAN_ANOMALY":"289.7271"},{"NORAD_CAT_ID":"48639","DECAY_DATE":null,"REF_FRAME":"TEME","RA_OF_ASC_NODE":"60.6159","TLE_LINE1":"1 48639U 21044B   22178.88741683  .00000439  00000-0  48358-4 0  9994","ELEMENT_SET_NO":"999","SEMIMAJOR_AXIS":"6925.358","OBJECT_ID":"2021-044B","LAUNCH_DATE":"2021-05-26","FILE":"3504144","OBJECT_TYPE":"PAYLOAD","ARG_OF_PERICENTER":"76.1015","APOAPSIS":"548.379","BSTAR":"0.00004835800000","OBJECT_NAME":"STARLINK-2739","MEAN_ELEMENT_THEORY":"SGP4","RCS_SIZE":"LARGE","MEAN_MOTION_DOT":"0.00000439","PERIAPSIS":"546.067","TIME_SYSTEM":"UTC","CENTER_NAME":"EARTH","EPOCH":"2022-06-27T21:17:52.814112","REV_AT_EPOCH":"6018","TLE_LINE2":"2 48639  53.0557  60.6159 0001669  76.1015 284.0160 15.06396930 60184","COUNTRY_CODE":"US","MEAN_MOTION":"15.06396930","SITE":"AFETR","EPHEMERIS_TYPE":"0","ECCENTRICITY":"0.00016690","CLASSIFICATION_TYPE":"U","MEAN_MOTION_DDOT":"0.0000000000000","PERIOD":"95.592","MEAN_ANOMALY":"284.0160","GP_ID":"206991496","INCLINATION":"53.0557"},{"FILE":"3504144","ARG_OF_PERICENTER":"67.9690","OBJECT_TYPE":"PAYLOAD","RA_OF_ASC_NODE":"60.9179","TLE_LINE1":"1 48640U 21044C   22178.88103061 -.00000248  00000-0  22280-5 0  9994","ELEMENT_SET_NO":"999","SEMIMAJOR_AXIS":"6925.373","NORAD_CAT_ID":"48640","DECAY_DATE":null,"REF_FRAME":"TEME","OBJECT_ID":"2021-044C","LAUNCH_DATE":"2021-05-26","CLASSIFICATION_TYPE":"U","ECCENTRICITY":"0.00017870","MEAN_MOTION_DDOT":"0.0000000000000","MEAN_MOTION":"15.06391909","COUNTRY_CODE":"US","EPHEMERIS_TYPE":"0","SITE":"AFETR","GP_ID":"206991742","INCLINATION":"53.0567","MEAN_ANOMALY":"292.1489","PERIOD":"95.593","RCS_SIZE":"LARGE","MEAN_ELEMENT_THEORY":"SGP4","PERIAPSIS":"546.001","MEAN_MOTION_DOT":"-0.00000248","BSTAR":"0.00000222800000","APOAPSIS":"548.476","OBJECT_NAME":"STARLINK-2736","TLE_LINE2":"2 48640  53.0567  60.9179 0001787  67.9690 292.1489 15.06391909 60174","REV_AT_EPOCH":"6017","TIME_SYSTEM":"UTC","CENTER_NAME":"EARTH","EPOCH":"2022-06-27T21:08:41.044704"},{"COUNTRY_CODE":"US","MEAN_MOTION":"15.06398092","SITE":"AFETR","EPHEMERIS_TYPE":"0","CLASSIFICATION_TYPE":"U","ECCENTRICITY":"0.00015890","MEAN_MOTION_DDOT":"0.0000000000000","PERIOD":"95.592","MEAN_ANOMALY":"295.1958","GP_ID":"206990994","INCLINATION":"53.0541","APOAPSIS":"548.320","BSTAR":"-0.00000819970000","OBJECT_NAME":"STARLINK-2754","MEAN_ELEMENT_THEORY":"SGP4","RCS_SIZE":"LARGE","MEAN_MOTION_DOT":"-0.00000404","PERIAPSIS":"546.119","TIME_SYSTEM":"UTC","CENTER_NAME":"EARTH","EPOCH":"2022-06-27T21:26:32.266464","REV_AT_EPOCH":"6011","TLE_LINE2":"2 48641  53.0541  65.5869 0001589  64.9196 295.1958 15.06398092 60110","FILE":"3504144","OBJECT_TYPE":"PAYLOAD","ARG_OF_PERICENTER":"64.9196","NORAD_CAT_ID":"48641","REF_FRAME":"TEME","DECAY_DATE":null,"TLE_LINE1":"1 48641U 21044D   22178.89342901 -.00000404  00000-0 -81997-5 0  9999","RA_OF_ASC_NODE":"65.5869","SEMIMAJOR_AXIS":"6925.354","ELEMENT_SET_NO":"999","OBJECT_ID":"2021-044D","LAUNCH_DATE":"2021-05-26"},{"ARG_OF_PERICENTER":"77.3198","OBJECT_TYPE":"PAYLOAD","FILE":"3504144","OBJECT_ID":"2021-044E","LAUNCH_DATE":"2021-05-26","RA_OF_ASC_NODE":"65.8154","TLE_LINE1":"1 48642U 21044E   22178.84088650 -.00001646  00000-0 -91629-4 0  9994","SEMIMAJOR_AXIS":"6925.384","ELEMENT_SET_NO":"999","NORAD_CAT_ID":"48642","DECAY_DATE":null,"REF_FRAME":"TEME","GP_ID":"206991244","INCLINATION":"53.0540","MEAN_ANOMALY":"282.7963","PERIOD":"95.593","CLASSIFICATION_TYPE":"U","ECCENTRICITY":"0.00015440","MEAN_MOTION_DDOT":"0.0000000000000","MEAN_MOTION":"15.06388287","COUNTRY_CODE":"US","EPHEMERIS_TYPE":"0","SITE":"AFETR","TLE_LINE2":"2 48642  53.0540  65.8154 0001544  77.3198 282.7963 15.06388287 60103","REV_AT_EPOCH":"6010","CENTER_NAME":"EARTH","TIME_SYSTEM":"UTC","EPOCH":"2022-06-27T20:10:52.593600","RCS_SIZE":"LARGE","MEAN_ELEMENT_THEORY":"SGP4","PERIAPSIS":"546.180","MEAN_MOTION_DOT":"-0.00001646","BSTAR":"-0.00009162900000","APOAPSIS":"548.319","OBJECT_NAME":"STARLINK-2646"},{"DECAY_DATE":null,"REF_FRAME":"TEME","NORAD_CAT_ID":"48643","ELEMENT_SET_NO":"999","SEMIMAJOR_AXIS":"6925.383","TLE_LINE1":"1 48643U 21044F   22178.88881189  .00002803  00000-0  20704-3 0  9996","RA_OF_ASC_NODE":"65.5944","LAUNCH_DATE":"2021-05-26","OBJECT_ID":"2021-044F","FILE":"3504144","ARG_OF_PERICENTER":"76.8592","OBJECT_TYPE":"PAYLOAD","OBJECT_NAME":"STARLINK-2704","BSTAR":"0.00020704000000","APOAPSIS":"548.359","PERIAPSIS":"546.136","MEAN_MOTION_DOT":"0.00002803","RCS_SIZE":"LARGE","MEAN_ELEMENT_THEORY":"SGP4","EPOCH":"2022-06-27T21:19:53.347296","CENTER_NAME":"EARTH","TIME_SYSTEM":"UTC","TLE_LINE2":"2 48643  53.0566  65.5944 0001605  76.8592 283.2576 15.06388806 60110","REV_AT_EPOCH":"6011","EPHEMERIS_TYPE":"0","SITE":"AFETR","MEAN_MOTION":"15.06388806","COUNTRY_CODE":"US","MEAN_MOTION_DDOT":"0.0000000000000","CLASSIFICATION_TYPE":"U","ECCENTRICITY":"0.00016050","MEAN_ANOMALY":"283.2576","PERIOD":"95.593","INCLINATION":"53.0566","GP_ID":"206991996"},{"OBJECT_ID":"2021-044G","LAUNCH_DATE":"2021-05-26","NORAD_CAT_ID":"48644","REF_FRAME":"TEME","DECAY_DATE":null,"TLE_LINE1":"1 48644U 21044G   22178.88606008  .00000924  00000-0  80882-4 0  9998","RA_OF_ASC_NODE":"65.6225","ELEMENT_SET_NO":"999","SEMIMAJOR_AXIS":"6925.348","ARG_OF_PERICENTER":"68.6322","OBJECT_TYPE":"PAYLOAD","FILE":"3504144","CENTER_NAME":"EARTH","TIME_SYSTEM":"UTC","EPOCH":"2022-06-27T21:15:55.590912","TLE_LINE2":"2 48644  53.0548  65.6225 0001287  68.6322 291.4804 15.06400309 60118","REV_AT_EPOCH":"6011","BSTAR":"0.00008088200000","APOAPSIS":"548.104","OBJECT_NAME":"STARLINK-2695","RCS_SIZE":"LARGE","MEAN_ELEMENT_THEORY":"SGP4","PERIAPSIS":"546.321","MEAN_MOTION_DOT":"0.00000924","MEAN_ANOMALY":"291.4804","PERIOD":"95.592","INCLINATION":"53.0548","GP_ID":"206992242","MEAN_MOTION":"15.06400309","COUNTRY_CODE":"US","EPHEMERIS_TYPE":"0","SITE":"AFETR","ECCENTRICITY":"0.00012870","CLASSIFICATION_TYPE":"U","MEAN_MOTION_DDOT":"0.0000000000000"}];
